{
  "norad_id": 57360,
  "name": "STARLINK-6348",
  "history": [
    {
      "epoch": "2026-04-10T06:00:00.999648Z",
      "apogee_km": 492.5144029330859,
      "perigee_km": 490.25735249638456,
      "latitude_deg": -13.75135978827247,
      "longitude_deg": 119.22618507589289,
      "height_km": 493.6205237702857,
      "semi_major_axis_km": 6869.522877714735,
      "eccentricity": 0.00016428,
      "inclination_deg": 43.0005,
      "raan_deg": 62.8452,
      "arg_perigee_deg": 266.738,
      "mean_anomaly_deg": 73.0445,
      "mean_motion_rev_day": 15.24800061
    },
    {
      "epoch": "2026-04-11T20:00:01.000224Z",
      "apogee_km": 486.96912254978906,
      "perigee_km": 484.517344530369,
      "latitude_deg": 30.144757854561796,
      "longitude_deg": -47.86322467510474,
      "height_km": 487.42119387582557,
      "semi_major_axis_km": 6863.880233540079,
      "eccentricity": 0.0001786,
      "inclination_deg": 43.0002,
      "raan_deg": 53.9226,
      "arg_perigee_deg": 255.5394,
      "mean_anomaly_deg": 151.6597,
      "mean_motion_rev_day": 15.26680704
    },
    {
      "epoch": "2026-04-13T06:00:02.000160Z",
      "apogee_km": 486.3803265146107,
      "perigee_km": 484.9010451477616,
      "latitude_deg": -41.86568500933138,
      "longitude_deg": 41.600641284069,
      "height_km": 497.7328172764048,
      "semi_major_axis_km": 6863.777685831186,
      "eccentricity": 0.00010776,
      "inclination_deg": 43.0002,
      "raan_deg": 45.9377,
      "arg_perigee_deg": 270.9104,
      "mean_anomaly_deg": 11.8024,
      "mean_motion_rev_day": 15.26714918
    },
    {
      "epoch": "2026-04-14T20:00:01.999008Z",
      "apogee_km": 486.28345147993423,
      "perigee_km": 484.8407019340102,
      "latitude_deg": -3.243815264936627,
      "longitude_deg": -109.47362773322216,
      "height_km": 486.0016014009023,
      "semi_major_axis_km": 6863.699076706972,
      "eccentricity": 0.0001051,
      "inclination_deg": 43.0006,
      "raan_deg": 37.0039,
      "arg_perigee_deg": 250.4311,
      "mean_anomaly_deg": 104.9112,
      "mean_motion_rev_day": 15.26741146
    },
    {
      "epoch": "2026-04-15T03:52:18.618240Z",
      "apogee_km": 486.21137951674245,
      "perigee_km": 484.9072772143536,
      "latitude_deg": 2.0375870520045005e-06,
      "longitude_deg": 133.7496586164279,
      "height_km": 485.3979874908737,
      "semi_major_axis_km": 6863.696328365548,
      "eccentricity": 9.5e-05,
      "inclination_deg": 43.0027,
      "raan_deg": 35.1546,
      "arg_perigee_deg": 264.5462,
      "mean_anomaly_deg": 95.5281,
      "mean_motion_rev_day": 15.26742063
    },
    {
      "epoch": "2026-04-16T19:07:30.605664Z",
      "apogee_km": 486.2191482319431,
      "perigee_km": 484.8930827220338,
      "latitude_deg": 4.8118007508412426e-05,
      "longitude_deg": -105.88851363156991,
      "height_km": 485.40573803357415,
      "semi_major_axis_km": 6863.693115476988,
      "eccentricity": 9.66e-05,
      "inclination_deg": 43.0013,
      "raan_deg": 25.9284,
      "arg_perigee_deg": 263.6714,
      "mean_anomaly_deg": 96.4028,
      "mean_motion_rev_day": 15.26743135
    },
    {
      "epoch": "2026-04-17T02:58:33.009888Z",
      "apogee_km": 486.21430710384993,
      "perigee_km": 484.8989488569832,
      "latitude_deg": 3.362307097161616e-05,
      "longitude_deg": 134.18433836660137,
      "height_km": 485.4210437881878,
      "semi_major_axis_km": 6863.693627980416,
      "eccentricity": 9.582e-05,
      "inclination_deg": 43.0016,
      "raan_deg": 24.0837,
      "arg_perigee_deg": 262.3232,
      "mean_anomaly_deg": 97.7511,
      "mean_motion_rev_day": 15.26742964
    },
    {
      "epoch": "2026-04-18T10:22:42.457440Z",
      "apogee_km": 486.22383602828086,
      "perigee_km": 484.880063005744,
      "latitude_deg": 5.819580105183046e-05,
      "longitude_deg": 14.476440823738178,
      "height_km": 485.4540760038178,
      "semi_major_axis_km": 6863.688949517013,
      "eccentricity": 9.789e-05,
      "inclination_deg": 43.0027,
      "raan_deg": 16.7048,
      "arg_perigee_deg": 259.2397,
      "mean_anomaly_deg": 100.8345,
      "mean_motion_rev_day": 15.26744525
    },
    {
      "epoch": "2026-04-19T02:04:47.152704Z",
      "apogee_km": 486.21802268534975,
      "perigee_km": 484.8776823073549,
      "latitude_deg": -4.928448188481283e-05,
      "longitude_deg": 134.62183284692298,
      "height_km": 485.45828146222806,
      "semi_major_axis_km": 6863.6848524963525,
      "eccentricity": 9.764e-05,
      "inclination_deg": 43.0027,
      "raan_deg": 13.0147,
      "arg_perigee_deg": 258.4889,
      "mean_anomaly_deg": 101.5852,
      "mean_motion_rev_day": 15.26745892
    },
    {
      "epoch": "2026-04-20T09:28:56.967456Z",
      "apogee_km": 486.6259693503862,
      "perigee_km": 484.5001441688055,
      "latitude_deg": -1.5662380376997353e-06,
      "longitude_deg": 14.909722765030123,
      "height_km": 485.56718847198385,
      "semi_major_axis_km": 6863.700056759595,
      "eccentricity": 0.00015486,
      "inclination_deg": 43.004,
      "raan_deg": 5.6331,
      "arg_perigee_deg": 257.6775,
      "mean_anomaly_deg": 102.3903,
      "mean_motion_rev_day": 15.26740819
    }
  ]
}